[{"OBJECT_NAME":"STARLINK-11579 [DTC]","OBJECT_ID":"2025-043M","EPOCH":"2025-11-12T04:09:52.172064","MEAN_MOTION":15.70915295,"ECCENTRICITY":0.00022016,"INCLINATION":42.9999,"RA_OF_ASC_NODE":238.7254,"ARG_OF_PERICENTER":275.9874,"MEAN_ANOMALY":84.0743,"EPHEMERIS_TYPE":0,"CLASSIFICATION_TYPE":"U","NORAD_CAT_ID":63143,"ELEMENT_SET_NO":999,"REV_AT_EPOCH":4087,"BSTAR":0.0020924883,"MEAN_MOTION_DOT":0.00278106,"MEAN_MOTION_DDOT":0},{"OBJECT_NAME":"STARLINK-11581 [DTC]","OBJECT_ID":"2025-043N","EPOCH":"2025-11-12T04:48:05.683392","MEAN_MOTION":15.70925312,"ECCENTRICITY":0.00017132,"INCLINATION":42.9997,"RA_OF_ASC_NODE":238.9395,"ARG_OF_PERICENTER":248.4738,"MEAN_ANOMALY":111.5947,"EPHEMERIS_TYPE":0,"CLASSIFICATION_TYPE":"U","NORAD_CAT_ID":63144,"ELEMENT_SET_NO":999,"REV_AT_EPOCH":4099,"BSTAR":0.0023942918,"MEAN_MOTION_DOT":0.00320044,"MEAN_MOTION_DDOT":0},{"OBJECT_NAME":"STARLINK-32949","OBJECT_ID":"2025-043P","EPOCH":"2025-11-12T06:50:34.475136","MEAN_MOTION":15.27618356,"ECCENTRICITY":9.159e-5,"INCLINATION":43.0018,"RA_OF_ASC_NODE":319.5466,"ARG_OF_PERICENTER":261.1454,"MEAN_ANOMALY":98.9294,"EPHEMERIS_TYPE":0,"CLASSIFICATION_TYPE":"U","NORAD_CAT_ID":63145,"ELEMENT_SET_NO":999,"REV_AT_EPOCH":3997,"BSTAR":0.0021039866,"MEAN_MOTION_DOT":0.00058161,"MEAN_MOTION_DDOT":0},{"OBJECT_NAME":"STARLINK-32952","OBJECT_ID":"2025-043Q","EPOCH":"2025-11-12T01:26:00.456000","MEAN_MOTION":15.27564753,"ECCENTRICITY":0.00011109,"INCLINATION":43.0011,"RA_OF_ASC_NODE":327.3451,"ARG_OF_PERICENTER":278.4657,"MEAN_ANOMALY":81.6069,"EPHEMERIS_TYPE":0,"CLASSIFICATION_TYPE":"U","NORAD_CAT_ID":63146,"ELEMENT_SET_NO":999,"REV_AT_EPOCH":3992,"BSTAR":0.0015368818,"MEAN_MOTION_DOT":0.00042252,"MEAN_MOTION_DDOT":0},{"OBJECT_NAME":"STARLINK-32936","OBJECT_ID":"2025-043R","EPOCH":"2025-11-12T07:46:20.735904","MEAN_MOTION":15.27591143,"ECCENTRICITY":0.0001351,"INCLINATION":43.0003,"RA_OF_ASC_NODE":325.9055,"ARG_OF_PERICENTER":270.874,"MEAN_ANOMALY":89.1957,"EPHEMERIS_TYPE":0,"CLASSIFICATION_TYPE":"U","NORAD_CAT_ID":63147,"ELEMENT_SET_NO":999,"REV_AT_EPOCH":3933,"BSTAR":0.002236817,"MEAN_MOTION_DOT":0.00061829,"MEAN_MOTION_DDOT":0},{"OBJECT_NAME":"STARLINK-32937","OBJECT_ID":"2025-043S","EPOCH":"2025-11-12T01:31:05.644128","MEAN_MOTION":15.27539111,"ECCENTRICITY":0.00012817,"INCLINATION":43.0009,"RA_OF_ASC_NODE":320.4599,"ARG_OF_PERICENTER":271.2536,"MEAN_ANOMALY":88.8169,"EPHEMERIS_TYPE":0,"CLASSIFICATION_TYPE":"U","NORAD_CAT_ID":63148,"ELEMENT_SET_NO":999,"REV_AT_EPOCH":3937,"BSTAR":0.0013641394,"MEAN_MOTION_DOT":0.0003742,"MEAN_MOTION_DDOT":0},{"OBJECT_NAME":"STARLINK-32939","OBJECT_ID":"2025-043T","EPOCH":"2025-11-12T07:32:56.246496","MEAN_MOTION":15.27588612,"ECCENTRICITY":0.00014499,"INCLINATION":43.001,"RA_OF_ASC_NODE":318.9059,"ARG_OF_PERICENTER":275.9138,"MEAN_ANOMALY":84.1548,"EPHEMERIS_TYPE":0,"CLASSIFICATION_TYPE":"U","NORAD_CAT_ID":63149,"ELEMENT_SET_NO":999,"REV_AT_EPOCH":3941,"BSTAR":0.00240461,"MEAN_MOTION_DOT":0.00066524,"MEAN_MOTION_DDOT":0},{"OBJECT_NAME":"STARLINK-32919","OBJECT_ID":"2025-043U","EPOCH":"2025-11-12T01:36:39.244896","MEAN_MOTION":15.27590809,"ECCENTRICITY":0.00035671,"INCLINATION":43.0047,"RA_OF_ASC_NODE":320.4886,"ARG_OF_PERICENTER":291.5083,"MEAN_ANOMALY":68.5389,"EPHEMERIS_TYPE":0,"CLASSIFICATION_TYPE":"U","NORAD_CAT_ID":63150,"ELEMENT_SET_NO":999,"REV_AT_EPOCH":3937,"BSTAR":0.0011918404,"MEAN_MOTION_DOT":0.00032695,"MEAN_MOTION_DDOT":0},{"OBJECT_NAME":"STARLINK-32876","OBJECT_ID":"2025-043V","EPOCH":"2025-11-12T00:48:32.653728","MEAN_MOTION":15.27584707,"ECCENTRICITY":8.535e-5,"INCLINATION":42.9987,"RA_OF_ASC_NODE":320.2334,"ARG_OF_PERICENTER":229.5148,"MEAN_ANOMALY":130.563,"EPHEMERIS_TYPE":0,"CLASSIFICATION_TYPE":"U","NORAD_CAT_ID":63151,"ELEMENT_SET_NO":999,"REV_AT_EPOCH":3937,"BSTAR":0.0013149904,"MEAN_MOTION_DOT":0.00036106,"MEAN_MOTION_DDOT":0},{"OBJECT_NAME":"STARLINK-32915","OBJECT_ID":"2025-043W","EPOCH":"2025-11-12T07:48:10.018944","MEAN_MOTION":15.27616629,"ECCENTRICITY":0.00012216,"INCLINATION":43.0005,"RA_OF_ASC_NODE":325.8654,"ARG_OF_PERICENTER":264.7689,"MEAN_ANOMALY":95.3023,"EPHEMERIS_TYPE":0,"CLASSIFICATION_TYPE":"U","NORAD_CAT_ID":63152,"ELEMENT_SET_NO":999,"REV_AT_EPOCH":3933,"BSTAR":0.0021490657,"MEAN_MOTION_DOT":0.0005942,"MEAN_MOTION_DDOT":0},{"OBJECT_NAME":"STARLINK-11602 [DTC]","OBJECT_ID":"2025-048A","EPOCH":"2025-11-12T08:00:03.000384","MEAN_MOTION":15.70841703,"ECCENTRICITY":0.00011931,"INCLINATION":42.9999,"RA_OF_ASC_NODE":307.604,"ARG_OF_PERICENTER":275.8015,"MEAN_ANOMALY":332.288,"EPHEMERIS_TYPE":0,"CLASSIFICATION_TYPE":"U","NORAD_CAT_ID":63183,"ELEMENT_SET_NO":999,"REV_AT_EPOCH":600,"BSTAR":0.00055785555,"MEAN_MOTION_DOT":0.00071756,"MEAN_MOTION_DDOT":0},{"OBJECT_NAME":"STARLINK-11617 [DTC]","OBJECT_ID":"2025-048B","EPOCH":"2025-11-12T06:49:19.418592","MEAN_MOTION":15.71207968,"ECCENTRICITY":0.00018069,"INCLINATION":42.9976,"RA_OF_ASC_NODE":307.8203,"ARG_OF_PERICENTER":160.2281,"MEAN_ANOMALY":199.8658,"EPHEMERIS_TYPE":0,"CLASSIFICATION_TYPE":"U","NORAD_CAT_ID":63184,"ELEMENT_SET_NO":999,"REV_AT_EPOCH":4005,"BSTAR":0.0038811424,"MEAN_MOTION_DOT":0.0053954,"MEAN_MOTION_DDOT":0},{"OBJECT_NAME":"STARLINK-11618 [DTC]","OBJECT_ID":"2025-048C","EPOCH":"2025-11-12T06:03:26.968608","MEAN_MOTION":15.70985063,"ECCENTRICITY":5.191e-5,"INCLINATION":42.9994,"RA_OF_ASC_NODE":307.565,"ARG_OF_PERICENTER":243.9419,"MEAN_ANOMALY":116.1395,"EPHEMERIS_TYPE":0,"CLASSIFICATION_TYPE":"U","NORAD_CAT_ID":63185,"ELEMENT_SET_NO":999,"REV_AT_EPOCH":4004,"BSTAR":0.0035032303,"MEAN_MOTION_DOT":0.0047892,"MEAN_MOTION_DDOT":0},{"OBJECT_NAME":"STARLINK-11646 [DTC]","OBJECT_ID":"2025-048D","EPOCH":"2025-11-11T23:41:55.491648","MEAN_MOTION":15.7107595,"ECCENTRICITY":0.00016727,"INCLINATION":42.9992,"RA_OF_ASC_NODE":309.0117,"ARG_OF_PERICENTER":222.8818,"MEAN_ANOMALY":137.1919,"EPHEMERIS_TYPE":0,"CLASSIFICATION_TYPE":"U","NORAD_CAT_ID":63186,"ELEMENT_SET_NO":999,"REV_AT_EPOCH":4001,"BSTAR":0.0037213362,"MEAN_MOTION_DOT":0.00512769,"MEAN_MOTION_DDOT":0},{"OBJECT_NAME":"STARLINK-11622 [DTC]","OBJECT_ID":"2025-048E","EPOCH":"2025-11-12T00:58:22.992096","MEAN_MOTION":15.70857864,"ECCENTRICITY":0.00030042,"INCLINATION":42.9994,"RA_OF_ASC_NODE":309.4377,"ARG_OF_PERICENTER":287.5503,"MEAN_ANOMALY":72.5036,"EPHEMERIS_TYPE":0,"CLASSIFICATION_TYPE":"U","NORAD_CAT_ID":63187,"ELEMENT_SET_NO":999,"REV_AT_EPOCH":4001,"BSTAR":0.0022715224,"MEAN_MOTION_DOT":0.00302106,"MEAN_MOTION_DDOT":0},{"OBJECT_NAME":"STARLINK-11642 [DTC]","OBJECT_ID":"2025-048F","EPOCH":"2025-11-12T06:34:01.533504","MEAN_MOTION":15.71040307,"ECCENTRICITY":0.00011081,"INCLINATION":42.9988,"RA_OF_ASC_NODE":307.7337,"ARG_OF_PERICENTER":248.1154,"MEAN_ANOMALY":111.9595,"EPHEMERIS_TYPE":0,"CLASSIFICATION_TYPE":"U","NORAD_CAT_ID":63188,"ELEMENT_SET_NO":999,"REV_AT_EPOCH":4005,"BSTAR":0.0031904201,"MEAN_MOTION_DOT":0.00434737,"MEAN_MOTION_DDOT":0}]
