STARLINK-11579 [DTC]    
1 63143U 25043M   25316.17352051  .00278106  00000+0  20925-2 0  9995
2 63143  42.9999 238.7254 0002201 275.9874  84.0743 15.70915295 40878
STARLINK-11581 [DTC]    
1 63144U 25043N   25316.20006578  .00320044  00000+0  23943-2 0  9992
2 63144  42.9997 238.9395 0001713 248.4738 111.5947 15.70925312 40992
STARLINK-32949          
1 63145U 25043P   25316.28512124  .00058161  00000+0  21040-2 0  9994
2 63145  43.0018 319.5466 0000915 261.1454  98.9294 15.27618356 39972
STARLINK-32952          
1 63146U 25043Q   25316.05972750  .00042252  00000+0  15369-2 0  9996
2 63146  43.0011 327.3451 0001110 278.4657  81.6069 15.27564753 39926
STARLINK-32936          
1 63147U 25043R   25316.32385111  .00061829  00000+0  22368-2 0  9994
2 63147  43.0003 325.9055 0001351 270.8740  89.1957 15.27591143 39335
STARLINK-32937          
1 63148U 25043S   25316.06325977  .00037420  00000+0  13641-2 0  9994
2 63148  43.0009 320.4599 0001281 271.2536  88.8169 15.27539111 39377
STARLINK-32939          
1 63149U 25043T   25316.31453989  .00066524  00000+0  24046-2 0  9996
2 63149  43.0010 318.9059 0001449 275.9138  84.1548 15.27588612 39413
STARLINK-32919          
1 63150U 25043U   25316.06712089  .00032695  00000+0  11918-2 0  9995
2 63150  43.0047 320.4886 0003567 291.5083  68.5389 15.27590809 39372
STARLINK-32876          
1 63151U 25043V   25316.03371127  .00036106  00000+0  13150-2 0  9998
2 63151  42.9987 320.2334 0000853 229.5148 130.5630 15.27584707 39377
STARLINK-32915          
1 63152U 25043W   25316.32511596  .00059420  00000+0  21491-2 0  9998
2 63152  43.0005 325.8654 0001221 264.7689  95.3023 15.27616629 39337
STARLINK-11602 [DTC]    
1 63183U 25048A   25316.33336806  .00071756  00000+0  55786-3 0  9998
2 63183  42.9999 307.6040 0001193 275.8015 332.2880 15.70841703  6005
STARLINK-11617 [DTC]    
1 63184U 25048B   25316.28425253  .00539540  00000+0  38811-2 0  9997
2 63184  42.9976 307.8203 0001806 160.2281 199.8658 15.71207968 40050
STARLINK-11618 [DTC]    
1 63185U 25048C   25316.25239547  .00478920  00000+0  35032-2 0  9990
2 63185  42.9994 307.5650 0000519 243.9419 116.1395 15.70985063 40043
STARLINK-11646 [DTC]    
1 63186U 25048D   25315.98744782  .00512769  00000+0  37213-2 0  9995
2 63186  42.9992 309.0117 0001672 222.8818 137.1919 15.71075950 40015
STARLINK-11622 [DTC]    
1 63187U 25048E   25316.04054389  .00302106  00000+0  22715-2 0  9994
2 63187  42.9994 309.4377 0003004 287.5503  72.5036 15.70857864 40013
STARLINK-11642 [DTC]    
1 63188U 25048F   25316.27362886  .00434737  00000+0  31904-2 0  9990
2 63188  42.9988 307.7337 0001108 248.1154 111.9595 15.71040307 40051
